{"type":"FeatureCollection","features":[{"type":"Feature","geometry":{"type":"Polygon","coordinates":[[[107.576029,-6.873283],[107.575964,-6.873659],[107.576224,-6.8737],[107.576281,-6.873325],[107.576029,-6.873283]]]},"properties":{"Gedung":"Auditorium","fill":"rgba(0, 0, 0, 1)","fill-opacity":0.7}},{"type":"Feature","geometry":{"type":"Polygon","coordinates":[[[107.575255,-6.873212],[107.575227,-6.873584],[107.575505,-6.873604],[107.575786,-6.873628],[107.5758159,-6.8732614],[107.575255,-6.873212]]]},"properties":{"Gedung":"Vokasi","fill":"rgba(13, 13, 0, 1)","fill-opacity":0.6}},{"type":"Feature","geometry":{"type":"Polygon","coordinates":[[[107.575516,-6.872557],[107.575462,-6.873013],[107.575836,-6.87306],[107.575887,-6.872597],[107.575516,-6.872557]]]},"properties":{"Gedung":"Anggrek","fill":"rgba(0, 128, 0, 1)"}},{"type":"Feature","geometry":{"type":"Polygon","coordinates":[[[107.576172,-6.872489],[107.576097,-6.872949],[107.576444,-6.873001],[107.576515,-6.872543],[107.576172,-6.872489]]]},"properties":{"Gedung":"fltb","fill":"rgba(251, 0, 0, 1)","fill-opacity":0.4}},{"type":"Feature","geometry":{"type":"Polygon","coordinates":[[[107.576816,-6.87218],[107.57675,-6.872631],[107.577074,-6.872676],[107.577136,-6.872229],[107.576816,-6.87218]]]},"properties":{"Gedung":"Rafflesia","fill-opacity":0.6,"fill":"rgba(157, 10, 10, 1)"}},{"type":"Feature","geometry":{"type":"Polygon","coordinates":[[[107.57554,-6.873691],[107.575507,-6.873866],[107.575818,-6.873925],[107.575851,-6.873747],[107.57554,-6.873691]]]},"properties":{"Gedung":"Rektorat","fill":"rgba(255, 89, 0, 1)","fill-opacity":0.7}},{"type":"Feature","geometry":{"type":"Polygon","coordinates":[[[107.575177,-6.873199],[107.575157,-6.873327],[107.575148,-6.873393],[107.575139,-6.873455],[107.575178,-6.873462],[107.575187,-6.873408],[107.575207,-6.873411],[107.57522,-6.873334],[107.575233,-6.873258],[107.575213,-6.873255],[107.575219,-6.873204],[107.575177,-6.873199]]]},"properties":{}},{"type":"Feature","geometry":{"type":"Polygon","coordinates":[[[107.575131,-6.87346],[107.575127,-6.873506],[107.575198,-6.873513],[107.575203,-6.873466],[107.575131,-6.87346]]]},"properties":{}},{"type":"Feature","geometry":{"type":"Polygon","coordinates":[[[107.575127,-6.873513],[107.575116,-6.873584],[107.575176,-6.873595],[107.575188,-6.873525],[107.575127,-6.873513]]]},"properties":{}},{"type":"Feature","geometry":{"type":"Polygon","coordinates":[[[107.575938,-6.872766],[107.575912,-6.872861],[107.576013,-6.872887],[107.576038,-6.872794],[107.575938,-6.872766]]]},"properties":{}},{"type":"Feature","geometry":{"type":"Polygon","coordinates":[[[107.57591,-6.872878],[107.575898,-6.872942],[107.575964,-6.872953],[107.575975,-6.872889],[107.57591,-6.872878]]]},"properties":{"Gedung":"Masjid","fill":"rgba(250, 250, 250, 1)","fill-opacity":0.9}},{"type":"Feature","geometry":{"type":"Polygon","coordinates":[[[107.576008,-6.872632],[107.575966,-6.872721],[107.576065,-6.872767],[107.576108,-6.872678],[107.576008,-6.872632]]]},"properties":{}},{"type":"Feature","geometry":{"type":"Polygon","coordinates":[[[107.576766,-6.872756],[107.576729,-6.873013],[107.576992,-6.873054],[107.577028,-6.872793],[107.576766,-6.872756]]]},"properties":{"fill":"rgba(0, 142, 155, 1)","fill-opacity":0.6}},{"type":"Feature","geometry":{"type":"Polygon","coordinates":[[[107.576674,-6.872787],[107.576653,-6.872941],[107.576717,-6.87295],[107.576738,-6.872796],[107.576674,-6.872787]]]},"properties":{"Gedung":"Sarana Prasarana"}},{"type":"Feature","geometry":{"type":"Polygon","coordinates":[[[107.576655,-6.87299],[107.576653,-6.873059],[107.576688,-6.87306],[107.576691,-6.872991],[107.576655,-6.87299]]]},"properties":{"Gedung":"Sarana Prasarana"}},{"type":"Feature","geometry":{"type":"Polygon","coordinates":[[[107.576544,-6.873162],[107.576506,-6.873438],[107.576812,-6.873478],[107.576848,-6.873205],[107.576544,-6.873162]]]},"properties":{"Gedung":"GOR","fill":"rgba(88, 88, 93, 1)","fill-opacity":0.6}},{"type":"Feature","geometry":{"type":"Polygon","coordinates":[[[107.576888,-6.873148],[107.576874,-6.873233],[107.576877,-6.873233],[107.576869,-6.873278],[107.576867,-6.873278],[107.576861,-6.873316],[107.576854,-6.873367],[107.576834,-6.873364],[107.576819,-6.873468],[107.576863,-6.873474],[107.576871,-6.873422],[107.576878,-6.873371],[107.576893,-6.873374],[107.576899,-6.873331],[107.576906,-6.873285],[107.576929,-6.873288],[107.576936,-6.873241],[107.576938,-6.873242],[107.57695,-6.873159],[107.576888,-6.873148]]]},"properties":{"Gedung":"Kantin","fill":"rgba(0, 129, 1, 1)","fill-opacity":0.6}},{"type":"Feature","geometry":{"type":"Polygon","coordinates":[[[107.5765,-6.873532],[107.576485,-6.873616],[107.57658,-6.873631],[107.576592,-6.873549],[107.5765,-6.873532]]]},"properties":{}},{"type":"Feature","geometry":{"type":"Polygon","coordinates":[[[107.57665,-6.873649],[107.576617,-6.873805],[107.576731,-6.873828],[107.576762,-6.873675],[107.57665,-6.873649]]]},"properties":{"Gedung":"Transportasi","fill":"rgba(255, 149, 135, 1)","fill-opacity":0.7}},{"type":"Feature","geometry":{"type":"Polygon","coordinates":[[[107.576639,-6.87385],[107.57663,-6.873878],[107.57671,-6.873902],[107.576718,-6.873877],[107.576639,-6.87385]]]},"properties":{"Gedung":"Center of Technology"}},{"type":"Feature","geometry":{"type":"Polygon","coordinates":[[[107.576035,-6.873102],[107.575996,-6.873096],[107.575983,-6.873194],[107.576095,-6.87321],[107.576112,-6.873082],[107.576041,-6.873072],[107.576035,-6.873102]]]},"properties":{"Gedung":"Pendopo","fill":"rgba(140, 0, 171, 1)","fill-opacity":0.4}},{"type":"Feature","geometry":{"type":"Polygon","coordinates":[[[107.576207,-6.873201],[107.576202,-6.87323],[107.576252,-6.873238],[107.576257,-6.873209],[107.576207,-6.873201]]]},"properties":{"Gedung":"Perpustakaan"}},{"type":"Feature","geometry":{"type":"Polygon","coordinates":[[[107.575036,-6.873744],[107.575031,-6.873818],[107.575189,-6.873829],[107.575178,-6.873918],[107.575409,-6.873951],[107.575421,-6.873861],[107.575189,-6.873828],[107.575192,-6.873753],[107.575036,-6.873744]]]},"properties":{"nama":"Gandaria","fill":"rgba(8, 0, 251, 1)"}},{"type":"Feature","geometry":{"type":"Polygon","coordinates":[[[107.57502,-6.873848],[107.575011,-6.873947],[107.575148,-6.873962],[107.575158,-6.873867],[107.57502,-6.873848]]]},"properties":{"nama":"Gandaria","fill":"rgba(8, 0, 240, 1)"}},{"type":"Feature","geometry":{"type":"Polygon","coordinates":[[[107.575186,-6.873989],[107.575175,-6.874065],[107.57534,-6.874088],[107.57535,-6.874011],[107.575186,-6.873989]]]},"properties":{"nama":"Gandaria","fill":"rgba(9, 0, 255, 1)"}},{"type":"Feature","geometry":{"type":"Polygon","coordinates":[[[107.57486,-6.873908],[107.574845,-6.873993],[107.574941,-6.87401],[107.574958,-6.873928],[107.57486,-6.873908]]]},"properties":{"nama":"Gandaria","fill":"rgba(8, 0, 255, 1)"}},{"type":"Feature","geometry":{"type":"Polygon","coordinates":[[[107.575957,-6.874012],[107.575943,-6.874117],[107.575895,-6.874125],[107.575868,-6.87428],[107.57596,-6.874297],[107.575987,-6.874139],[107.576068,-6.874136],[107.57611,-6.874144],[107.576168,-6.874167],[107.576197,-6.874089],[107.57614,-6.874069],[107.576079,-6.874031],[107.575957,-6.874012]]]},"properties":{"Gedung":"","nama":"Satpam","fill":"rgba(94, 94, 95, 1)","fill-opacity":1}},{"type":"Feature","geometry":{"type":"LineString","coordinates":[[107.574769,-6.873968],[107.575342,-6.874226],[107.575938,-6.874472],[107.576025,-6.874191],[107.576198,-6.87419],[107.576443,-6.874068],[107.576717,-6.87394],[107.576804,-6.873607],[107.576868,-6.873495],[107.576966,-6.873242],[107.577053,-6.872969],[107.577103,-6.872705],[107.577172,-6.87208],[107.577046,-6.871924],[107.576994,-6.871916],[107.576804,-6.872082],[107.576745,-6.8721],[107.5767,-6.872245],[107.576552,-6.872276],[107.57636,-6.872187],[107.576195,-6.872155],[107.576062,-6.872605],[107.57563,-6.872522],[107.575545,-6.872517],[107.575463,-6.872557],[107.575391,-6.873053],[107.575157,-6.873113],[107.575071,-6.873592],[107.574992,-6.87365],[107.574929,-6.873765],[107.574767,-6.873962]]},"properties":{}},{"type":"Feature","geometry":{"type":"Polygon","coordinates":[[[107.575643,-6.874437],[107.575546,-6.874692],[107.575638,-6.874731],[107.575736,-6.874475],[107.575643,-6.874437]]]},"properties":{"Gedung":"YPBPI","fill":"rgba(255, 119, 0, 1)","fill-opacity":0.8}},{"type":"Feature","geometry":{"type":"Polygon","coordinates":[[[107.577009,-6.87192],[107.57693,-6.871989],[107.577055,-6.872134],[107.577132,-6.872065],[107.577009,-6.87192]]]},"properties":{"nama":"SPPG","fill":"rgba(0, 194, 233, 1)","fill-opacity":0.5}},{"type":"Feature","geometry":{"type":"Polygon","coordinates":[[[107.576203,-6.872253],[107.576152,-6.872373],[107.576192,-6.872389],[107.576243,-6.87227],[107.576203,-6.872253]]]},"properties":{"nama":"Sekretariat Himpunan"}},{"type":"Feature","geometry":{"type":"Polygon","coordinates":[[[107.576379,-6.87222],[107.576332,-6.872296],[107.576463,-6.872378],[107.57651,-6.872304],[107.576379,-6.87222]]]},"properties":{"nama":"Sekretariat Himpunan"}},{"type":"Feature","geometry":{"type":"Polygon","coordinates":[[[107.576265,-6.872206],[107.576264,-6.87224],[107.576309,-6.872236],[107.576307,-6.872205],[107.576265,-6.872206]]]},"properties":{"nama":"Sekretariat Himpunan"}},{"type":"Feature","geometry":{"type":"Polygon","coordinates":[[[107.576211,-6.872412],[107.576201,-6.872472],[107.576265,-6.872479],[107.576274,-6.872424],[107.576211,-6.872412]]]},"properties":{"nama":"Ruang SerbaGuna"}},{"type":"Feature","geometry":{"type":"Polygon","coordinates":[[[107.576576,-6.872289],[107.576565,-6.872415],[107.576652,-6.872422],[107.576664,-6.8723],[107.576576,-6.872289]]]},"properties":{"nama":"Menara Air"}},{"type":"Feature","geometry":{"type":"Polygon","coordinates":[[[107.5763235,-6.8734619],[107.5763184,-6.8735066],[107.5763749,-6.8735143],[107.5763813,-6.8734685],[107.5763546,-6.8734651],[107.5763235,-6.8734619]]]},"properties":{"Halte":"Bus","fill":"rgba(8, 8, 13, 1)","fill-opacity":0.5}},{"type":"Feature","properties":{"Gedung":"Lorong"},"geometry":{"type":"LineString","coordinates":[[107.5758021,-6.8734416],[107.5759022,-6.8734484],[107.5759288,-6.872964],[107.5759321,-6.872964],[107.5759321,-6.872964]]}},{"type":"Feature","properties":{"Gedung":"Lorong"},"geometry":{"type":"LineString","coordinates":[[107.5756312,-6.8730324],[107.5756234,-6.8731386],[107.5759104,-6.8731619],[107.5759104,-6.8731619],[107.575913,-6.8731645]]}},{"type":"Feature","properties":{"Gedung":"Lorong"},"geometry":{"type":"LineString","coordinates":[[107.5759018,-6.8734482],[107.5759992,-6.8734495],[107.5759992,-6.8734495],[107.5759981,-6.8734475]]}}]}